[{"OBJECT_NAME":"ONEWEB-0401","OBJECT_ID":"2021-132N","EPOCH":"2026-03-09T17:32:35.689632","MEAN_MOTION":13.18686209,"ECCENTRICITY":0.00016239,"INCLINATION":87.9255,"RA_OF_ASC_NODE":355.1905,"ARG_OF_PERICENTER":82.3998,"MEAN_ANOMALY":277.7318,"EPHEMERIS_TYPE":0,"CLASSIFICATION_TYPE":"U","NORAD_CAT_ID":50481,"ELEMENT_SET_NO":999,"REV_AT_EPOCH":20850,"BSTAR":-0.00034064984,"MEAN_MOTION_DOT":-1.21e-6,"MEAN_MOTION_DDOT":0},{"OBJECT_NAME":"SL-14 DEB","OBJECT_ID":"1991-056Z","EPOCH":"2026-03-09T16:45:16.985664","MEAN_MOTION":13.32922987,"ECCENTRICITY":0.0077559,"INCLINATION":82.5735,"RA_OF_ASC_NODE":172.6292,"ARG_OF_PERICENTER":170.8539,"MEAN_ANOMALY":189.4027,"EPHEMERIS_TYPE":0,"CLASSIFICATION_TYPE":"U","NORAD_CAT_ID":45287,"ELEMENT_SET_NO":999,"REV_AT_EPOCH":29427,"BSTAR":0.001266578,"MEAN_MOTION_DOT":6.42e-6,"MEAN_MOTION_DDOT":0}]
